{
  "type": "FeatureCollection",
  "name": "barpeta_evacuation_routes",
  "features": [
    {
      "type": "Feature",
      "id": "route_barpeta_1",
      "properties": {
        "id": "route_barpeta_1",
        "name": "Barpeta Town - NH31 Corridor",
        "route_type": "primary",
        "length_km": 8.5,
        "travel_time_min": 18,
        "capacity_per_hour": 500,
        "current_load": 120,
        "status": "open",
        "bridge_dependencies": ["bridge_beki"],
        "last_assessment": "2024-03-01"
      },
      "geometry": {
        "type": "LineString",
        "coordinates": [
          [91.03, 26.30],
          [91.00, 26.31],
          [90.99, 26.33]
        ]
      }
    },
    {
      "type": "Feature",
      "id": "route_barpeta_2",
      "properties": {
        "id": "route_barpeta_2",
        "name": "Barpeta Town - District Road Alt",
        "route_type": "alternative",
        "length_km": 12.2,
        "travel_time_min": 28,
        "capacity_per_hour": 200,
        "current_load": 30,
        "status": "open",
        "bridge_dependencies": [],
        "last_assessment": "2024-03-01"
      },
      "geometry": {
        "type": "LineString",
        "coordinates": [
          [91.03, 26.30],
          [91.05, 26.28],
          [91.02, 26.25],
          [90.99, 26.33]
        ]
      }
    },
    {
      "type": "Feature",
      "id": "route_barpeta_3",
      "properties": {
        "id": "route_barpeta_3",
        "name": "Barpeta Road - SH2 to Howly Site",
        "route_type": "alternative",
        "length_km": 15.5,
        "travel_time_min": 32,
        "capacity_per_hour": 250,
        "current_load": 40,
        "status": "open",
        "bridge_dependencies": ["bridge_chaulkhowa"],
        "last_assessment": "2024-03-01"
      },
      "geometry": {
        "type": "LineString",
        "coordinates": [
          [91.03, 26.30],
          [91.08, 26.30],
          [91.15, 26.30]
        ]
      }
    },
    {
      "type": "Feature",
      "id": "route_howly_1",
      "properties": {
        "id": "route_howly_1",
        "name": "Howly - SH15 Direct",
        "route_type": "primary",
        "length_km": 6.2,
        "travel_time_min": 14,
        "capacity_per_hour": 400,
        "current_load": 80,
        "status": "open",
        "bridge_dependencies": ["bridge_chaulkhowa"],
        "last_assessment": "2024-03-01"
      },
      "geometry": {
        "type": "LineString",
        "coordinates": [
          [91.13, 26.27],
          [91.12, 26.29],
          [91.10, 26.31],
          [91.12, 26.28]
        ]
      }
    },
    {
      "type": "Feature",
      "id": "route_howly_2",
      "properties": {
        "id": "route_howly_2",
        "name": "Howly - District Road to Barpeta Site",
        "route_type": "alternative",
        "length_km": 14.8,
        "travel_time_min": 30,
        "capacity_per_hour": 200,
        "current_load": 35,
        "status": "open",
        "bridge_dependencies": ["bridge_beki"],
        "last_assessment": "2024-03-01"
      },
      "geometry": {
        "type": "LineString",
        "coordinates": [
          [91.13, 26.27],
          [91.10, 26.29],
          [91.03, 26.30]
        ]
      }
    },
    {
      "type": "Feature",
      "id": "route_howly_3",
      "properties": {
        "id": "route_howly_3",
        "name": "Howly - Rural Road to Bajali Site",
        "route_type": "contingency",
        "length_km": 18.2,
        "travel_time_min": 38,
        "capacity_per_hour": 150,
        "current_load": 20,
        "status": "open",
        "bridge_dependencies": [],
        "last_assessment": "2024-03-01"
      },
      "geometry": {
        "type": "LineString",
        "coordinates": [
          [91.13, 26.27],
          [91.18, 26.30],
          [91.25, 26.35]
        ]
      }
    },
    {
      "type": "Feature",
      "id": "route_chenga_1",
      "properties": {
        "id": "route_chenga_1",
        "name": "Chenga - District Road to Relief Camp",
        "route_type": "primary",
        "length_km": 4.8,
        "travel_time_min": 12,
        "capacity_per_hour": 300,
        "current_load": 60,
        "status": "open",
        "bridge_dependencies": ["culvert_1"],
        "last_assessment": "2024-03-01"
      },
      "geometry": {
        "type": "LineString",
        "coordinates": [
          [90.83, 26.44],
          [90.84, 26.46],
          [90.85, 26.47]
        ]
      }
    },
    {
      "type": "Feature",
      "id": "route_chenga_2",
      "properties": {
        "id": "route_chenga_2",
        "name": "Chenga - Alt via NH31 to Barpeta Site",
        "route_type": "alternative",
        "length_km": 16.5,
        "travel_time_min": 35,
        "capacity_per_hour": 200,
        "current_load": 25,
        "status": "open",
        "bridge_dependencies": ["bridge_beki"],
        "last_assessment": "2024-03-01"
      },
      "geometry": {
        "type": "LineString",
        "coordinates": [
          [90.83, 26.44],
          [90.88, 26.42],
          [90.95, 26.38],
          [91.00, 26.40]
        ]
      }
    },
    {
      "type": "Feature",
      "id": "route_chenga_3",
      "properties": {
        "id": "route_chenga_3",
        "name": "Chenga - Rural Connector to Mandia Site",
        "route_type": "contingency",
        "length_km": 12.0,
        "travel_time_min": 28,
        "capacity_per_hour": 150,
        "current_load": 15,
        "status": "open",
        "bridge_dependencies": [],
        "last_assessment": "2024-03-01"
      },
      "geometry": {
        "type": "LineString",
        "coordinates": [
          [90.83, 26.44],
          [90.75, 26.50],
          [90.65, 26.58]
        ]
      }
    },
    {
      "type": "Feature",
      "id": "route_mandia_1",
      "properties": {
        "id": "route_mandia_1",
        "name": "Mandia - Rural Road to Camp",
        "route_type": "primary",
        "length_km": 3.5,
        "travel_time_min": 10,
        "capacity_per_hour": 250,
        "current_load": 45,
        "status": "open",
        "bridge_dependencies": [],
        "last_assessment": "2024-03-01"
      },
      "geometry": {
        "type": "LineString",
        "coordinates": [
          [90.67, 26.56],
          [90.66, 26.55],
          [90.65, 26.55]
        ]
      }
    },
    {
      "type": "Feature",
      "id": "route_mandia_2",
      "properties": {
        "id": "route_mandia_2",
        "name": "Mandia - Alternative via NH31",
        "route_type": "alternative",
        "length_km": 15.0,
        "travel_time_min": 35,
        "capacity_per_hour": 150,
        "current_load": 20,
        "status": "open",
        "bridge_dependencies": ["bridge_kaldia"],
        "last_assessment": "2024-03-01"
      },
      "geometry": {
        "type": "LineString",
        "coordinates": [
          [90.67, 26.56],
          [90.70, 26.54],
          [90.80, 26.50],
          [90.85, 26.50],
          [90.65, 26.55]
        ]
      }
    },
    {
      "type": "Feature",
      "id": "route_mandia_3",
      "properties": {
        "id": "route_mandia_3",
        "name": "Mandia - Connector to Chenga Site",
        "route_type": "contingency",
        "length_km": 11.5,
        "travel_time_min": 25,
        "capacity_per_hour": 180,
        "current_load": 20,
        "status": "open",
        "bridge_dependencies": ["culvert_1"],
        "last_assessment": "2024-03-01"
      },
      "geometry": {
        "type": "LineString",
        "coordinates": [
          [90.67, 26.56],
          [90.72, 26.52],
          [90.80, 26.50],
          [90.83, 26.48]
        ]
      }
    },
    {
      "type": "Feature",
      "id": "route_goberadhana_1",
      "properties": {
        "id": "route_goberadhana_1",
        "name": "Goberadhana - Rural Road",
        "route_type": "primary",
        "length_km": 12.5,
        "travel_time_min": 30,
        "capacity_per_hour": 180,
        "current_load": 40,
        "status": "open",
        "bridge_dependencies": ["bridge_kaldia"],
        "last_assessment": "2024-03-01"
      },
      "geometry": {
        "type": "LineString",
        "coordinates": [
          [91.02, 26.52],
          [90.98, 26.51],
          [90.90, 26.50],
          [90.85, 26.47]
        ]
      }
    },
    {
      "type": "Feature",
      "id": "route_goberadhana_2",
      "properties": {
        "id": "route_goberadhana_2",
        "name": "Goberadhana - Alt to Barpeta Site",
        "route_type": "alternative",
        "length_km": 10.2,
        "travel_time_min": 24,
        "capacity_per_hour": 220,
        "current_load": 30,
        "status": "open",
        "bridge_dependencies": ["bridge_beki"],
        "last_assessment": "2024-03-01"
      },
      "geometry": {
        "type": "LineString",
        "coordinates": [
          [91.02, 26.52],
          [91.00, 26.48],
          [91.00, 26.42]
        ]
      }
    },
    {
      "type": "Feature",
      "id": "route_goberadhana_3",
      "properties": {
        "id": "route_goberadhana_3",
        "name": "Goberadhana - Connector to Howly Site",
        "route_type": "contingency",
        "length_km": 14.5,
        "travel_time_min": 32,
        "capacity_per_hour": 150,
        "current_load": 15,
        "status": "open",
        "bridge_dependencies": ["bridge_chaulkhowa"],
        "last_assessment": "2024-03-01"
      },
      "geometry": {
        "type": "LineString",
        "coordinates": [
          [91.02, 26.52],
          [91.05, 26.45],
          [91.12, 26.35]
        ]
      }
    },
    {
      "type": "Feature",
      "id": "route_rupsi_1",
      "properties": {
        "id": "route_rupsi_1",
        "name": "Rupsi Char - Access Road",
        "route_type": "primary",
        "length_km": 3.2,
        "travel_time_min": 15,
        "capacity_per_hour": 100,
        "current_load": 15,
        "status": "impassable",
        "bridge_dependencies": ["culvert_2"],
        "last_assessment": "2024-03-01"
      },
      "geometry": {
        "type": "LineString",
        "coordinates": [
          [90.83, 26.70],
          [90.82, 26.69],
          [90.82, 26.68]
        ]
      }
    },
    {
      "type": "Feature",
      "id": "route_bajali_1",
      "properties": {
        "id": "route_bajali_1",
        "name": "Pathsala - SH15 to Bajali Camp",
        "route_type": "primary",
        "length_km": 7.8,
        "travel_time_min": 16,
        "capacity_per_hour": 350,
        "current_load": 70,
        "status": "open",
        "bridge_dependencies": ["bridge_chaulkhowa"],
        "last_assessment": "2024-03-01"
      },
      "geometry": {
        "type": "LineString",
        "coordinates": [
          [91.22, 26.32],
          [91.23, 26.33],
          [91.25, 26.35]
        ]
      }
    },
    {
      "type": "Feature",
      "id": "route_bajali_2",
      "properties": {
        "id": "route_bajali_2",
        "name": "Pathsala - Alt to Howly Site",
        "route_type": "alternative",
        "length_km": 16.0,
        "travel_time_min": 34,
        "capacity_per_hour": 200,
        "current_load": 25,
        "status": "open",
        "bridge_dependencies": [],
        "last_assessment": "2024-03-01"
      },
      "geometry": {
        "type": "LineString",
        "coordinates": [
          [91.22, 26.32],
          [91.18, 26.30],
          [91.15, 26.30]
        ]
      }
    },
    {
      "type": "Feature",
      "id": "route_bajali_3",
      "properties": {
        "id": "route_bajali_3",
        "name": "Pathsala - Connector to Barpeta Site",
        "route_type": "contingency",
        "length_km": 20.5,
        "travel_time_min": 42,
        "capacity_per_hour": 150,
        "current_load": 15,
        "status": "open",
        "bridge_dependencies": ["bridge_beki"],
        "last_assessment": "2024-03-01"
      },
      "geometry": {
        "type": "LineString",
        "coordinates": [
          [91.22, 26.32],
          [91.15, 26.30],
          [91.03, 26.30]
        ]
      }
    },
    {
      "type": "Feature",
      "id": "route_sarbhog_1",
      "properties": {
        "id": "route_sarbhog_1",
        "name": "Sarbhog - NH31 Corridor",
        "route_type": "primary",
        "length_km": 18.5,
        "travel_time_min": 38,
        "capacity_per_hour": 250,
        "current_load": 50,
        "status": "open",
        "bridge_dependencies": ["bridge_manas"],
        "last_assessment": "2024-03-01"
      },
      "geometry": {
        "type": "LineString",
        "coordinates": [
          [91.28, 26.70],
          [91.30, 26.65],
          [91.30, 26.55]
        ]
      }
    },
    {
      "type": "Feature",
      "id": "route_sarbhog_2",
      "properties": {
        "id": "route_sarbhog_2",
        "name": "Sarbhog - Alt to Bajali Site",
        "route_type": "alternative",
        "length_km": 12.0,
        "travel_time_min": 26,
        "capacity_per_hour": 200,
        "current_load": 20,
        "status": "open",
        "bridge_dependencies": [],
        "last_assessment": "2024-03-01"
      },
      "geometry": {
        "type": "LineString",
        "coordinates": [
          [91.28, 26.70],
          [91.30, 26.60],
          [91.25, 26.43]
        ]
      }
    },
    {
      "type": "Feature",
      "id": "route_sarbhog_3",
      "properties": {
        "id": "route_sarbhog_3",
        "name": "Sarbhog - Connector to Rupsi Site",
        "route_type": "contingency",
        "length_km": 8.5,
        "travel_time_min": 20,
        "capacity_per_hour": 120,
        "current_load": 10,
        "status": "open",
        "bridge_dependencies": [],
        "last_assessment": "2024-03-01"
      },
      "geometry": {
        "type": "LineString",
        "coordinates": [
          [91.28, 26.70],
          [91.20, 26.68],
          [90.83, 26.72]
        ]
      }
    },
    {
      "type": "Feature",
      "id": "route_pakabetbari_1",
      "properties": {
        "id": "route_pakabetbari_1",
        "name": "Pakabetbari - Rural Connector",
        "route_type": "primary",
        "length_km": 9.2,
        "travel_time_min": 22,
        "capacity_per_hour": 200,
        "current_load": 30,
        "status": "open",
        "bridge_dependencies": [],
        "last_assessment": "2024-03-01"
      },
      "geometry": {
        "type": "LineString",
        "coordinates": [
          [91.25, 26.50],
          [91.24, 26.45],
          [91.25, 26.35]
        ]
      }
    },
    {
      "type": "Feature",
      "id": "route_pakabetbari_2",
      "properties": {
        "id": "route_pakabetbari_2",
        "name": "Pakabetbari - Alt to Bajali Site",
        "route_type": "alternative",
        "length_km": 11.0,
        "travel_time_min": 25,
        "capacity_per_hour": 180,
        "current_load": 15,
        "status": "open",
        "bridge_dependencies": [],
        "last_assessment": "2024-03-01"
      },
      "geometry": {
        "type": "LineString",
        "coordinates": [
          [91.25, 26.50],
          [91.28, 26.45],
          [91.25, 26.38]
        ]
      }
    },
    {
      "type": "Feature",
      "id": "route_barnagar_1",
      "properties": {
        "id": "route_barnagar_1",
        "name": "Barnagar - SH15 to Howly Site",
        "route_type": "primary",
        "length_km": 5.5,
        "travel_time_min": 13,
        "capacity_per_hour": 300,
        "current_load": 50,
        "status": "open",
        "bridge_dependencies": ["bridge_chaulkhowa"],
        "last_assessment": "2024-03-01"
      },
      "geometry": {
        "type": "LineString",
        "coordinates": [
          [91.10, 26.25],
          [91.12, 26.27],
          [91.13, 26.27]
        ]
      }
    },
    {
      "type": "Feature",
      "id": "route_barnagar_2",
      "properties": {
        "id": "route_barnagar_2",
        "name": "Barnagar - Alt to Barpeta Site",
        "route_type": "alternative",
        "length_km": 13.5,
        "travel_time_min": 28,
        "capacity_per_hour": 200,
        "current_load": 25,
        "status": "open",
        "bridge_dependencies": ["bridge_beki"],
        "last_assessment": "2024-03-01"
      },
      "geometry": {
        "type": "LineString",
        "coordinates": [
          [91.10, 26.25],
          [91.05, 26.28],
          [91.03, 26.30]
        ]
      }
    }
  ]
}