{
  "type": "FeatureCollection",
  "name": "barpeta_infrastructure",
  "features": [
    {
      "type": "Feature",
      "id": "road_nh31",
      "properties": {
        "id": "road_nh31",
        "infra_type": "road",
        "name": "NH-31",
        "condition": "good",
        "length_m": 45000,
        "width_m": 12,
        "surface_type": "asphalt",
        "last_inspection": "2024-01-10"
      },
      "geometry": {
        "type": "LineString",
        "coordinates": [
          [90.55, 26.30],
          [90.75, 26.30],
          [90.95, 26.35],
          [91.15, 26.40],
          [91.35, 26.50]
        ]
      }
    },
    {
      "type": "Feature",
      "id": "road_sh15",
      "properties": {
        "id": "road_sh15",
        "infra_type": "road",
        "name": "SH-15",
        "condition": "good",
        "length_m": 38000,
        "width_m": 10,
        "surface_type": "asphalt",
        "last_inspection": "2024-01-10"
      },
      "geometry": {
        "type": "LineString",
        "coordinates": [
          [90.70, 26.20],
          [90.90, 26.30],
          [91.10, 26.45],
          [91.30, 26.60]
        ]
      }
    },
    {
      "type": "Feature",
      "id": "road_district_1",
      "properties": {
        "id": "road_district_1",
        "infra_type": "road",
        "name": "Barpeta-Howly Road",
        "condition": "fair",
        "length_m": 25000,
        "width_m": 7,
        "surface_type": "asphalt",
        "last_inspection": "2023-11-15"
      },
      "geometry": {
        "type": "LineString",
        "coordinates": [
          [91.00, 26.35],
          [91.10, 26.30],
          [91.15, 26.25]
        ]
      }
    },
    {
      "type": "Feature",
      "id": "road_rural_1",
      "properties": {
        "id": "road_rural_1",
        "infra_type": "road",
        "name": "Chenga-Mandia Road",
        "condition": "fair",
        "length_m": 18000,
        "width_m": 5.5,
        "surface_type": "gravel",
        "last_inspection": "2023-10-20"
      },
      "geometry": {
        "type": "LineString",
        "coordinates": [
          [90.80, 26.45],
          [90.85, 26.50],
          [90.70, 26.55],
          [90.60, 26.55]
        ]
      }
    },
    {
      "type": "Feature",
      "id": "road_rural_2",
      "properties": {
        "id": "road_rural_2",
        "infra_type": "road",
        "name": "Rupsi-Goberadhana Road",
        "condition": "poor",
        "length_m": 22000,
        "width_m": 4.5,
        "surface_type": "gravel",
        "last_inspection": "2023-09-10"
      },
      "geometry": {
        "type": "LineString",
        "coordinates": [
          [90.85, 26.60],
          [90.85, 26.65],
          [90.90, 26.70],
          [90.80, 26.72]
        ]
      }
    },
    {
      "type": "Feature",
      "id": "bridge_beki",
      "properties": {
        "id": "bridge_beki",
        "infra_type": "bridge",
        "name": "Beki River Bridge (NH-31)",
        "condition": "good",
        "length_m": 850,
        "width_m": 12,
        "clearance_m": 8.5,
        "last_inspection": "2024-02-15"
      },
      "geometry": {
        "type": "Point",
        "coordinates": [90.95, 26.35]
      }
    },
    {
      "type": "Feature",
      "id": "bridge_chaulkhowa",
      "properties": {
        "id": "bridge_chaulkhowa",
        "infra_type": "bridge",
        "name": "Chaulkhowa Bridge (SH-15)",
        "condition": "fair",
        "length_m": 420,
        "width_m": 10,
        "clearance_m": 6.0,
        "last_inspection": "2023-12-01"
      },
      "geometry": {
        "type": "Point",
        "coordinates": [91.10, 26.45]
      }
    },
    {
      "type": "Feature",
      "id": "bridge_kaldia",
      "properties": {
        "id": "bridge_kaldia",
        "infra_type": "bridge",
        "name": "Kaldia River Bridge",
        "condition": "poor",
        "length_m": 380,
        "width_m": 7,
        "clearance_m": 4.5,
        "last_inspection": "2023-10-15"
      },
      "geometry": {
        "type": "Point",
        "coordinates": [90.85, 26.50]
      }
    },
    {
      "type": "Feature",
      "id": "bridge_manas",
      "properties": {
        "id": "bridge_manas",
        "infra_type": "bridge",
        "name": "Manas River Bridge",
        "condition": "good",
        "length_m": 1200,
        "width_m": 12,
        "clearance_m": 9.0,
        "last_inspection": "2024-01-20"
      },
      "geometry": {
        "type": "Point",
        "coordinates": [91.30, 26.55]
      }
    },
    {
      "type": "Feature",
      "id": "culvert_1",
      "properties": {
        "id": "culvert_1",
        "infra_type": "culvert",
        "name": "Chenga Culvert",
        "condition": "fair",
        "length_m": 15,
        "width_m": 5.5,
        "last_inspection": "2023-11-01"
      },
      "geometry": {
        "type": "Point",
        "coordinates": [90.82, 26.48]
      }
    },
    {
      "type": "Feature",
      "id": "culvert_2",
      "properties": {
        "id": "culvert_2",
        "infra_type": "culvert",
        "name": "Mandia Culvert",
        "condition": "poor",
        "length_m": 12,
        "width_m": 4.5,
        "last_inspection": "2023-10-01"
      },
      "geometry": {
        "type": "Point",
        "coordinates": [90.65, 26.58]
      }
    }
  ]
}